SL-16 R/B               
1 25400U 98043G   25351.85023356  .00000047  00000+0  38636-4 0  9993
2 25400  98.8132 299.6970 0008815 250.1426 109.8804 14.26026854427324
SL-16 R/B               
1 25407U 98045B   25351.70908318  .00000003  00000+0  25513-4 0  9998
2 25407  71.0114 353.9760 0006655 168.9696 191.1575 14.16174571415493
ISS (ZARYA)             
1 25544U 98067A   25351.82928960  .00007629  00000+0  14328-3 0  9994
2 25544  51.6309 117.2752 0003168 263.8701  96.1927 15.49640803543642
CZ-4B R/B               
1 25732U 99025C   25351.92136008  .00000071  00000+0  55039-4 0  9992
2 25732  98.6762  33.0854 0036486 218.7844 314.9270 14.18244909376579
OKEAN-O                 
1 25860U 99039A   25351.72445113  .00000645  00000+0  91746-4 0  9999
2 25860  97.9598  47.3830 0000923 107.6263 252.5050 14.80170171422269
SL-16 R/B               
1 25861U 99039B   25351.71475016  .00000497  00000+0  70075-4 0  9991
2 25861  98.0121  45.8663 0015305 158.7662 201.4189 14.81593686424721
DELTA 2 R/B             
1 25876U 99041E   25351.17466872  .00000980  00000+0  19766-3 0  9996
2 25876  51.7615 270.7424 0504607 104.8388 260.8984 14.11413152351374
HELIOS 1B               
1 25977U 99064A   25351.71471180  .00001563  00000+0  17975-3 0  9999
2 25977  98.1757 246.5278 0001465  37.3110 322.8207 14.87302201673079
TERRA                   
1 25994U 99068A   25351.89236074  .00000410  00000+0  92913-4 0  9998
2 25994  97.9743  43.3877 0003573  84.3831  89.0039 14.60907758383131
SL-16 R/B               
1 26070U 00006B   25351.91515282 -.00000240  00000+0 -97455-4 0  9991
2 26070  71.0023 269.7758 0018571 301.6711  58.2600 14.15809009336982
TITAN 4B R/B            
1 26474U 00047B   25351.84746960  .00002740  00000+0  17936-3 0  9995
2 26474  67.9898 270.5094 0038571 138.4379 221.9714 15.08818489380568
ENVISAT                 
1 27386U 02009A   25351.77264056  .00000090  00000+0  43004-4 0  9993
2 27386  98.3606 302.3857 0001134  84.6854 335.5668 14.39001060247397
