CCSDS_OMM_VERS = 2.0
CREATION_DATE  = 
ORIGINATOR     = 

OBJECT_NAME    = SL-16 R/B
OBJECT_ID      = 1998-043G
CENTER_NAME    = EARTH
REF_FRAME      = TEME
TIME_SYSTEM    = UTC
MEAN_ELEMENT_THEORY = SGP/SGP4

EPOCH          = 2025-12-17T20:24:20.179584
MEAN_MOTION    = 14.26026854
ECCENTRICITY   = .00088159
INCLINATION    = 98.8132
RA_OF_ASC_NODE = 299.6970
ARG_OF_PERICENTER = 250.1426
MEAN_ANOMALY   = 109.8804

EPHEMERIS_TYPE = 0
CLASSIFICATION_TYPE = U
NORAD_CAT_ID   = 25400
ELEMENT_SET_NO = 999
REV_AT_EPOCH   = 42732
BSTAR          = .38636455E-4
MEAN_MOTION_DOT = .47E-6
MEAN_MOTION_DDOT = 0

CCSDS_OMM_VERS = 2.0
CREATION_DATE  = 
ORIGINATOR     = 

OBJECT_NAME    = SL-16 R/B
OBJECT_ID      = 1998-045B
CENTER_NAME    = EARTH
REF_FRAME      = TEME
TIME_SYSTEM    = UTC
MEAN_ELEMENT_THEORY = SGP/SGP4

EPOCH          = 2025-12-17T17:01:04.786752
MEAN_MOTION    = 14.16174571
ECCENTRICITY   = .00066553
INCLINATION    = 71.0114
RA_OF_ASC_NODE = 353.9760
ARG_OF_PERICENTER = 168.9696
MEAN_ANOMALY   = 191.1575

EPHEMERIS_TYPE = 0
CLASSIFICATION_TYPE = U
NORAD_CAT_ID   = 25407
ELEMENT_SET_NO = 999
REV_AT_EPOCH   = 41549
BSTAR          = .25513363E-4
MEAN_MOTION_DOT = .3E-7
MEAN_MOTION_DDOT = 0

CCSDS_OMM_VERS = 2.0
CREATION_DATE  = 
ORIGINATOR     = 

OBJECT_NAME    = ISS (ZARYA)
OBJECT_ID      = 1998-067A
CENTER_NAME    = EARTH
REF_FRAME      = TEME
TIME_SYSTEM    = UTC
MEAN_ELEMENT_THEORY = SGP/SGP4

EPOCH          = 2025-12-17T19:54:10.621440
MEAN_MOTION    = 15.49640803
ECCENTRICITY   = .00031686
INCLINATION    = 51.6309
RA_OF_ASC_NODE = 117.2752
ARG_OF_PERICENTER = 263.8701
MEAN_ANOMALY   = 96.1927

EPHEMERIS_TYPE = 0
CLASSIFICATION_TYPE = U
NORAD_CAT_ID   = 25544
ELEMENT_SET_NO = 999
REV_AT_EPOCH   = 54364
BSTAR          = .14328078E-3
MEAN_MOTION_DOT = .7629E-4
MEAN_MOTION_DDOT = 0

CCSDS_OMM_VERS = 2.0
CREATION_DATE  = 
ORIGINATOR     = 

OBJECT_NAME    = CZ-4B R/B
OBJECT_ID      = 1999-025C
CENTER_NAME    = EARTH
REF_FRAME      = TEME
TIME_SYSTEM    = UTC
MEAN_ELEMENT_THEORY = SGP/SGP4

EPOCH          = 2025-12-17T22:06:45.510912
MEAN_MOTION    = 14.18244909
ECCENTRICITY   = .00364861
INCLINATION    = 98.6762
RA_OF_ASC_NODE = 33.0854
ARG_OF_PERICENTER = 218.7844
MEAN_ANOMALY   = 314.9270

EPHEMERIS_TYPE = 0
CLASSIFICATION_TYPE = U
NORAD_CAT_ID   = 25732
ELEMENT_SET_NO = 999
REV_AT_EPOCH   = 37657
BSTAR          = .55039239E-4
MEAN_MOTION_DOT = .71E-6
MEAN_MOTION_DDOT = 0

CCSDS_OMM_VERS = 2.0
CREATION_DATE  = 
ORIGINATOR     = 

OBJECT_NAME    = OKEAN-O
OBJECT_ID      = 1999-039A
CENTER_NAME    = EARTH
REF_FRAME      = TEME
TIME_SYSTEM    = UTC
MEAN_ELEMENT_THEORY = SGP/SGP4

EPOCH          = 2025-12-17T17:23:12.577632
MEAN_MOTION    = 14.80170171
ECCENTRICITY   = .00009231
INCLINATION    = 97.9598
RA_OF_ASC_NODE = 47.3830
ARG_OF_PERICENTER = 107.6263
MEAN_ANOMALY   = 252.5050

EPHEMERIS_TYPE = 0
CLASSIFICATION_TYPE = U
NORAD_CAT_ID   = 25860
ELEMENT_SET_NO = 999
REV_AT_EPOCH   = 42226
BSTAR          = .91745867E-4
MEAN_MOTION_DOT = .645E-5
MEAN_MOTION_DDOT = 0

CCSDS_OMM_VERS = 2.0
CREATION_DATE  = 
ORIGINATOR     = 

OBJECT_NAME    = SL-16 R/B
OBJECT_ID      = 1999-039B
CENTER_NAME    = EARTH
REF_FRAME      = TEME
TIME_SYSTEM    = UTC
MEAN_ELEMENT_THEORY = SGP/SGP4

EPOCH          = 2025-12-17T17:09:14.413824
MEAN_MOTION    = 14.81593686
ECCENTRICITY   = .00153054
INCLINATION    = 98.0121
RA_OF_ASC_NODE = 45.8663
ARG_OF_PERICENTER = 158.7662
MEAN_ANOMALY   = 201.4189

EPHEMERIS_TYPE = 0
CLASSIFICATION_TYPE = U
NORAD_CAT_ID   = 25861
ELEMENT_SET_NO = 999
REV_AT_EPOCH   = 42472
BSTAR          = .7007524E-4
MEAN_MOTION_DOT = .497E-5
MEAN_MOTION_DDOT = 0

CCSDS_OMM_VERS = 2.0
CREATION_DATE  = 
ORIGINATOR     = 

OBJECT_NAME    = DELTA 2 R/B
OBJECT_ID      = 1999-041E
CENTER_NAME    = EARTH
REF_FRAME      = TEME
TIME_SYSTEM    = UTC
MEAN_ELEMENT_THEORY = SGP/SGP4

EPOCH          = 2025-12-17T04:11:31.377408
MEAN_MOTION    = 14.11413152
ECCENTRICITY   = .05046078
INCLINATION    = 51.7615
RA_OF_ASC_NODE = 270.7424
ARG_OF_PERICENTER = 104.8388
MEAN_ANOMALY   = 260.8984

EPHEMERIS_TYPE = 0
CLASSIFICATION_TYPE = U
NORAD_CAT_ID   = 25876
ELEMENT_SET_NO = 999
REV_AT_EPOCH   = 35137
BSTAR          = .19765603E-3
MEAN_MOTION_DOT = .98E-5
MEAN_MOTION_DDOT = 0

CCSDS_OMM_VERS = 2.0
CREATION_DATE  = 
ORIGINATOR     = 

OBJECT_NAME    = HELIOS 1B
OBJECT_ID      = 1999-064A
CENTER_NAME    = EARTH
REF_FRAME      = TEME
TIME_SYSTEM    = UTC
MEAN_ELEMENT_THEORY = SGP/SGP4

EPOCH          = 2025-12-17T17:09:11.099520
MEAN_MOTION    = 14.87302201
ECCENTRICITY   = .00014653
INCLINATION    = 98.1757
RA_OF_ASC_NODE = 246.5278
ARG_OF_PERICENTER = 37.3110
MEAN_ANOMALY   = 322.8207

EPHEMERIS_TYPE = 0
CLASSIFICATION_TYPE = U
NORAD_CAT_ID   = 25977
ELEMENT_SET_NO = 999
REV_AT_EPOCH   = 67307
BSTAR          = .1797494E-3
MEAN_MOTION_DOT = .1563E-4
MEAN_MOTION_DDOT = 0

CCSDS_OMM_VERS = 2.0
CREATION_DATE  = 
ORIGINATOR     = 

OBJECT_NAME    = TERRA
OBJECT_ID      = 1999-068A
CENTER_NAME    = EARTH
REF_FRAME      = TEME
TIME_SYSTEM    = UTC
MEAN_ELEMENT_THEORY = SGP/SGP4

EPOCH          = 2025-12-17T21:24:59.967936
MEAN_MOTION    = 14.60907758
ECCENTRICITY   = .0003573
INCLINATION    = 97.9743
RA_OF_ASC_NODE = 43.3877
ARG_OF_PERICENTER = 84.3831
MEAN_ANOMALY   = 89.0039

EPHEMERIS_TYPE = 0
CLASSIFICATION_TYPE = U
NORAD_CAT_ID   = 25994
ELEMENT_SET_NO = 999
REV_AT_EPOCH   = 38313
BSTAR          = .92913413E-4
MEAN_MOTION_DOT = .41E-5
MEAN_MOTION_DDOT = 0

CCSDS_OMM_VERS = 2.0
CREATION_DATE  = 
ORIGINATOR     = 

OBJECT_NAME    = SL-16 R/B
OBJECT_ID      = 2000-006B
CENTER_NAME    = EARTH
REF_FRAME      = TEME
TIME_SYSTEM    = UTC
MEAN_ELEMENT_THEORY = SGP/SGP4

EPOCH          = 2025-12-17T21:57:49.203648
MEAN_MOTION    = 14.15809009
ECCENTRICITY   = .00185719
INCLINATION    = 71.0023
RA_OF_ASC_NODE = 269.7758
ARG_OF_PERICENTER = 301.6711
MEAN_ANOMALY   = 58.2600

EPHEMERIS_TYPE = 0
CLASSIFICATION_TYPE = U
NORAD_CAT_ID   = 26070
ELEMENT_SET_NO = 999
REV_AT_EPOCH   = 33698
BSTAR          = -.97455043E-4
MEAN_MOTION_DOT = -.24E-5
MEAN_MOTION_DDOT = 0

CCSDS_OMM_VERS = 2.0
CREATION_DATE  = 
ORIGINATOR     = 

OBJECT_NAME    = TITAN 4B R/B
OBJECT_ID      = 2000-047B
CENTER_NAME    = EARTH
REF_FRAME      = TEME
TIME_SYSTEM    = UTC
MEAN_ELEMENT_THEORY = SGP/SGP4

EPOCH          = 2025-12-17T20:20:21.373440
MEAN_MOTION    = 15.08818489
ECCENTRICITY   = .00385719
INCLINATION    = 67.9898
RA_OF_ASC_NODE = 270.5094
ARG_OF_PERICENTER = 138.4379
MEAN_ANOMALY   = 221.9714

EPHEMERIS_TYPE = 0
CLASSIFICATION_TYPE = U
NORAD_CAT_ID   = 26474
ELEMENT_SET_NO = 999
REV_AT_EPOCH   = 38056
BSTAR          = .17935527E-3
MEAN_MOTION_DOT = .274E-4
MEAN_MOTION_DDOT = 0

CCSDS_OMM_VERS = 2.0
CREATION_DATE  = 
ORIGINATOR     = 

OBJECT_NAME    = ENVISAT
OBJECT_ID      = 2002-009A
CENTER_NAME    = EARTH
REF_FRAME      = TEME
TIME_SYSTEM    = UTC
MEAN_ELEMENT_THEORY = SGP/SGP4

EPOCH          = 2025-12-17T18:32:36.144384
MEAN_MOTION    = 14.39001060
ECCENTRICITY   = .00011343
INCLINATION    = 98.3606
RA_OF_ASC_NODE = 302.3857
ARG_OF_PERICENTER = 84.6854
MEAN_ANOMALY   = 335.5668

EPHEMERIS_TYPE = 0
CLASSIFICATION_TYPE = U
NORAD_CAT_ID   = 27386
ELEMENT_SET_NO = 999
REV_AT_EPOCH   = 24739
BSTAR          = .43003772E-4
MEAN_MOTION_DOT = .9E-6
MEAN_MOTION_DDOT = 0

